EYESAT A (AO-27)        
1 22825U 93061C   26183.17332940  .00000128  00000+0  65584-4 0  9999
2 22825  98.6875 250.5810 0009348  60.9529 299.2589 14.30946281709143
ITAMSAT (IO-26)         
1 22826U 93061D   26183.14826960  .00000118  00000+0  61280-4 0  9995
2 22826  98.6822 250.4751 0009661  45.6293 314.5680 14.31373513709455
RADIO ROSTO (RS15)      
1 23439U 94085A   26183.19312674 -.00000019  00000+0  67978-3 0  9990
2 23439  64.8179 278.9481 0156445   1.1004 359.0236 11.27583453297597
JAS-2 (FO-29)           
1 24278U 96046B   26183.17175736 -.00000028  00000+0  52747-5 0  9995
2 24278  98.5226  29.9902 0350799  57.6602 305.7995 13.53274938475196
FORTE                   
1 24920U 97047A   26183.15539496  .00000197  00000+0  10267-3 0  9991
2 24920  69.9544 340.2106 0024600 259.2624 100.5729 14.27951149500826
TECHSAT 1B (GO-32)      
1 25397U 98043D   26183.23686333  .00000060  00000+0  46029-4 0  9994
2 25397  99.0074 176.3754 0001758 135.7295 224.4024 14.24431320453478
ISS (ZARYA)             
1 25544U 98067A   26182.50817465  .00006185  00000+0  11827-3 0  9996
2 25544  51.6311 229.1989 0004224 255.0896 104.9625 15.49503254573972
IMAGE                   
1 26113U 00017A   26181.91168621 -.00000033  00000+0  00000+0 0  9998
2 26113  94.2398 315.5527 7422471 286.2504   9.4555  1.68666270161730
CLUSTER II-FM7 (SAMBA)  
1 26410U 00041A   26183.75752675  .00012787  00000+0  00000+0 0  9995
2 26410 149.8840  53.4423 9072869 270.8480 359.6360  0.44834504 20376
CLUSTER II-FM8 (TANGO)  
1 26464U 00045B   26181.94601251  .00015784  00000+0  00000+0 0  9990
2 26464 150.1096  54.2616 9074787 271.4997   2.3331  0.44420098 20376
ODIN                    
1 26702U 01007A   26183.11825946  .00279824  00000+0  13413-2 0  9996
2 26702  97.3778 225.0778 0005951 134.9782 225.1970 15.81970381391759
OMNI-M1                 
1 26857U 01026A   26183.00645506  .00000007  00000+0  00000+0 0  9998
2 26857  44.8270 241.8483 0013799  56.1769 304.0224  3.92402003206150
PCSAT (NO-44)           
1 26931U 01043C   26183.24589311  .00000103  00000+0  69472-4 0  9997
2 26931  67.0489 205.3231 0006019 265.5533  94.4881 14.31961081292605
PROBA-1                 
1 26958U 01049B   26183.27023905  .00001590  00000+0  10545-3 0  9994
2 26958  97.9596 192.3301 0056652  72.5346 288.2062 15.07561927345897
SAUDISAT 1C (SO-50)     
1 27607U 02058C   26182.99026468  .00000980  00000+0  13277-3 0  9999
2 27607  64.5520  83.1849 0074907 259.7114  99.5540 14.83077510266658
CORIOLIS                
1 27640U 03001A   26183.27668728  .00000119  00000+0  76335-4 0  9997
2 27640  98.7127 189.9311 0014250 164.7519 195.4089 14.19948960216367
CUTE-1 (CO-55)          
1 27844U 03031E   26182.99996152  .00000303  00000+0  15002-3 0  9997
2 27844  98.6736 191.3725 0010408 137.1021 223.0971 14.24344824193780
CUBESAT XI-IV (CO-57)   
1 27848U 03031J   26183.27698888  .00000271  00000+0  13794-3 0  9998
2 27848  98.6769 191.3466 0009960 153.7682 206.4003 14.23628936193521
MOZHAETS 4 (RS22)       
1 27939U 03042A   26183.29546400  .00000835  00000+0  13682-3 0  9997
2 27939  98.3466   8.0808 0010316 216.0341 247.3165 14.73493036217772
